# Made by eph2tle, compiled Sep 17 2021 12:00:30
# Run at Sat Sep 18 10:05:31 2021
#
#    The following TLEs (Two-Line Elements) were generated by fitting
# a numerically-integrated ephemeris,  based on the orbit given below,
# to the SDP4/SGP4 models.  Each TLE is good for the interval between
# its epoch and the epoch of the subsequent TLE (usually one day).
# The maximum deviation between the numerically integrated ephemerides
# and the TLE-based ephemeris, in kilometers,  is given for each TLE
# as the "worst residual".
#
#    This fitting is done using the 'eph2tle' code packaged with Find_Orb.
# The code has details on how the TLEs were computed :
#
#    https://github.com/Bill-Gray/find_orb/eph2tle.cpp
#
#    Be warned:  the error given is that between the numerically
# integrated ephems and the TLE model.  There will usually be at
# least some additional difference between the ephems and the actual
# motion of the satellite,  especially if the ephemerides are based
# on a short arc.  If the following orbital elements say something
# like "[based on] 10 observations 2015 Jan. 1-13",  and the TLEs
# are for 2015 May,  the extrapolation may be tenuous at best.  If
# your application requires a specific level of accuracy,  you may
# want to contact me;  I can give you some idea as to the fit of the
# underlying data (and possibly TLEs based on newer data).
#
#   You can usually find the underlying observational data,  and the
# fitted orbit,  residuals,  ephemerides,  and sometimes some comments
# about the object,  among the pages listed at
#
#    https://www.projectpluto.com/pluto/mpecs/pseudo.htm
#
#    WARNING:  for this object,  "normal" TLEs cannot be fitted.  (This
# usually means an object with an hyperbolic or nearly-parabolic orbit.)
# For this and similar cases,   an alternative model is used,  in which
# most of the traditional TLE data is replaced by six signed 8-digit hex
# numbers.  These six numbers are a state vector,  numerically integrated
# using a simplified force model.  This is necessary for objects at L2 or
# L1,  and sometimes for objects in high orbits where the SDP4/SGP4 model
# fails.  I'll be posting source code for this.  But be aware:  it's my
# own extension,  doesn't work with other code,  and is therefore used
# only when necessary.
#
#    Also,  if you use a TLE outside the "correct" time range (between
# its MJD and that of the next TLE),  all bets are off.  I've carefully
# computed and minimized the worst error over the "correct" time frame,
# but the ephemeris may (or may not) diverge wildly outside of it.
#
# Ephem range: 59468.000000 59498.000000 1.000000
# Created Sat Sep 18 10:05:14 2021
# Ephemeris start: 11 Sep 2021  0:00:00
# Ephemeris end:   11 Oct 2021  0:00:00
# Times are all TDT
# Positions/velocities are in equatorial J2000
# Orbital elements:  Unk_Cislunar
#    Perigee 2021 Sep 13.52436 +/- 0.00267 TT = 12:35:04 (JD 2459471.02436)
# Epoch 2021 Sep 18.0 TT = JDT 2459475.5                        Find_Orb
# M  66.11549414 +/- 0.11             (J2000 equator)
# n  14.77229717 +/- 0.0213           Peri.  240.58520 +/- 0.06
# a355062.507 +/- 341                 Node    27.29544 +/- 0.035
# e   0.0973042 +/- 0.000825          Incl.   30.85964 +/- 0.0009
# P  24.37d                  H 28.6   G  0.15   U 10.2
# q 320513.417 +/- 19    Q 389611.596 +/- 667
# 36 of 58 observations 2021 May 1-Sept. 18; mean residual 160".731
#
# 1 NoradU COSPAR   Epoch.epoch     dn/dt/2  d2n/dt2/6 BSTAR    T El# C
# 2 NoradU Inclina RAAscNode Eccent  ArgPeri MeanAno  MeanMotion Rev# C

# Worst residual: 276.70 km
# MJD 59468.000000 (2021 Sep 11  0:00)
Unk_Cislunar
1 99999U 00000    21253.99919926 -005FEY5I -003NUH4V -001PB7F8H 13575
2 99999                          +0005VJ1S -0005M1M2 -0000Y4R7     04

# Worst residual: 2369.80 km
# MJD 59469.000000 (2021 Sep 12  0:00)
Unk_Cislunar
1 99999U 00000    21254.99919926 -003PZW8Z -004VJLZJ -001UCA1PH 13570
2 99999                          +0008UENY -0003UQN9 -0000B9O4     02

# Worst residual: 171.96 km
# MJD 59470.000000 (2021 Sep 13  0:00)
Unk_Cislunar
1 99999U 00000    21255.99919926 -001LN9AD -0054GEOO -0025N487H 13579
2 99999                          +0007VB4U +0000G4YZ -0001V47R     05

# Worst residual: 39.06 km
# MJD 59471.000000 (2021 Sep 14  0:00)
Unk_Cislunar
1 99999U 00000    21256.99919926 +0006RW57 -004VDY91 -002JJ7AGH 13575
2 99999                          +00075WR1 +0001ONSH -00018W5Q     06

# Worst residual: 11.96 km
# MJD 59472.000000 (2021 Sep 15  0:00)
Unk_Cislunar
1 99999U 00000    21257.99919926 +001U4JYH -004AWR2L -002QD8QDH 13576
2 99999                          +0006IQ6Z +00031WKH -0000BAOM     04

# Worst residual: 5.29 km
# MJD 59473.000000 (2021 Sep 16  0:00)
Unk_Cislunar
1 99999U 00000    21258.99919926 +003AAQ0F -003F3JGA -002OUI1CH 13578
2 99999                          +0005HMSE +00049I7K +0000NQS0     02

# Worst residual: 3.05 km
# MJD 59474.000000 (2021 Sep 17  0:00)
Unk_Cislunar
1 99999U 00000    21259.99919926 +004FZPYJ -002A98W5 -002F8WRFH 13575
2 99999                          +000445V9 +00054DU1 +0001JDYE     00

# Worst residual: 1.84 km
# MJD 59475.000000 (2021 Sep 18  0:00)
Unk_Cislunar
1 99999U 00000    21260.99919926 +0058UMHZ -000ZTTW3 -001YRSJRH 13576
2 99999                          +0002JM5W +0005JXBA +00028P7V     06

# Worst residual: 3.10 km
# MJD 59476.000000 (2021 Sep 19  0:00)
Unk_Cislunar
1 99999U 00000    21261.99919926 +005NTWLV +000CI89H -001D4HZDH 13576
2 99999                          +0000XB4I +0005KHYG +0002QDLS     08

# Worst residual: 3.58 km
# MJD 59477.000000 (2021 Sep 20  0:00)
Unk_Cislunar
1 99999U 00000    21262.99919926 +005P123N +001NCYR8 -000O6DT4H 13570
2 99999                          -0000MNWI +00057Y4C +000308M0     05

# Worst residual: 3.28 km
# MJD 59478.000000 (2021 Sep 21  0:00)
Unk_Cislunar
1 99999U 00000    21263.99919926 +005DD1J4 +002TUPIV +00028IRMH 13572
2 99999                          -00021JH9 +0004KJ8C +00032OVD     07

# Worst residual: 2.47 km
# MJD 59479.000000 (2021 Sep 22  0:00)
Unk_Cislunar
1 99999U 00000    21264.99919926 +004QA2U4 +003TN076 +000SER97H 13573
2 99999                          -00039K28 +0003ODX7 +0002YC25     09

# Worst residual: 2.09 km
# MJD 59480.000000 (2021 Sep 23  0:00)
Unk_Cislunar
1 99999U 00000    21265.99919926 +003TKTK0 +004KUEU0 +001GS1NZH 13571
2 99999                          -00049J84 +0002LAUN +0002NQQH     07

# Worst residual: 2.30 km
# MJD 59481.000000 (2021 Sep 24  0:00)
Unk_Cislunar
1 99999U 00000    21266.99919926 +002PAVUX +0051ZHOM +0021WHZYH 13574
2 99999                          -00050IRC +0001CQC1 +00027CJC     04

# Worst residual: 2.39 km
# MJD 59482.000000 (2021 Sep 25  0:00)
Unk_Cislunar
1 99999U 00000    21267.99919926 +001FQ8IX +0057W4AR +002IF8XQH 13579
2 99999                          -0005HHF3 -00000534 +0001LEWP     00

# Worst residual: 2.22 km
# MJD 59483.000000 (2021 Sep 26  0:00)
Unk_Cislunar
1 99999U 00000    21268.99919926 +0003FDDY +0051NNSZ +002T0Y8DH 13574
2 99999                          -0005MY9Q -0001G9PZ +0000U1BB     04

# Worst residual: 2.15 km
# MJD 59484.000000 (2021 Sep 27  0:00)
Unk_Cislunar
1 99999U 00000    21269.99919926 -0018KY2K +004IN06O +002WELLOH 13570
2 99999                          -0005EJCZ -0002YEVR -00002S42     05

# Worst residual: 1.94 km
# MJD 59485.000000 (2021 Sep 28  0:00)
Unk_Cislunar
1 99999U 00000    21270.99919926 -002GJB7K +003ML8F6 +002R9P8DH 13574
2 99999                          -0004ODGE -0004GC30 -00014UFE     06

# Worst residual: 1.27 km
# MJD 59486.000000 (2021 Sep 29  0:00)
Unk_Cislunar
1 99999U 00000    21271.99919926 -003FJADE +002E2JLO +002CGUW3H 13572
2 99999                          -0003AUU7 -0005T664 -0002AYPT     03

# Worst residual: 0.74 km
# MJD 59487.000000 (2021 Sep 30  0:00)
Unk_Cislunar
1 99999U 00000    21272.99919926 -003Z81YB +000VDZMA +001NFIU6H 13570
2 99999                          -00013XOV -0006QPIA -0003H2M1     06

# Worst residual: 0.47 km
# MJD 59488.000000 (2021 Oct  1  0:00)
Unk_Cislunar
1 99999U 00000    21273.99919926 -003W9GUV -000RS1SW +000P7T93H 13575
2 99999                          +0001WVDW -0006QXZ1 -0004D3OI     04

# Worst residual: 0.38 km
# MJD 59489.000000 (2021 Oct  2  0:00)
Unk_Cislunar
1 99999U 00000    21274.99919926 -00316LTB -0028VNEG -000DT3SXH 13578
2 99999                          +00058W5T -00059K9J -0004I3MR     07

# Worst residual: 0.29 km
# MJD 59490.000000 (2021 Oct  3  0:00)
Unk_Cislunar
1 99999U 00000    21275.99919926 -001G8F0I -0036G0WH -001DDH5ZH 13570
2 99999                          +0007O4Q1 -0002BOHV -0003JTP2     08

# Worst residual: 0.27 km
# MJD 59491.000000 (2021 Oct  4  0:00)
Unk_Cislunar
1 99999U 00000    21276.99919926 +000HQ8K8 -003BWPGG -0020VEJKH 13577
2 99999                          +00086TQ2 +00010CFD -0001TH6F     02

# Worst residual: 0.37 km
# MJD 59492.000000 (2021 Oct  5  0:00)
Unk_Cislunar
1 99999U 00000    21277.99919926 +002CF205 -002RAH1C -0028O6JCH 13575
2 99999                          +00071GP1 +0003KXIS -000010TQ     01

# Worst residual: 0.46 km
# MJD 59493.000000 (2021 Oct  6  0:00)
Unk_Cislunar
1 99999U 00000    21278.99919926 +003T4GP0 -001P9TWP -0022J7X8H 13574
2 99999                          +00053CWK +00051IM7 +0001DA21     02

# Worst residual: 0.54 km
# MJD 59494.000000 (2021 Oct  7  0:00)
Unk_Cislunar
1 99999U 00000    21279.99919926 +004S1OC7 -000ET0C0 -001MEAEQH 13572
2 99999                          +0003009Z +0005L4HO +0002AI79     06

# Worst residual: 0.57 km
# MJD 59495.000000 (2021 Oct  8  0:00)
Unk_Cislunar
1 99999U 00000    21280.99919926 +0059FT4J +000XH0XW -00102ZB6H 13577
2 99999                          +00012BE6 +0005I7EC +0002TCHG     00

# Worst residual: 0.51 km
# MJD 59496.000000 (2021 Oct  9  0:00)
Unk_Cislunar
1 99999U 00000    21281.99919926 +005B6RHC +00276EMU -000AMH0XH 13577
2 99999                          -0000M3L3 +00050QYY +000318HY     01

# Worst residual: 0.45 km
# MJD 59497.000000 (2021 Oct 10  0:00)
Unk_Cislunar
1 99999U 00000    21282.99919926 +004ZMCCG +003BHHI5 +000FOZGFH 13573
2 99999                          -00020OCO +00049VYC +00030VZM     06
Avg worst resid: 97.05 km
Worst residual in entire run: 2369.80 km on MJD 59469.0
       1     3     10    30    100   300   1K    3K    10K   km
    11     9     5     1     1     2     0     1     0     0
